[{"OBJECT_NAME":"STARLINK-2388","OBJECT_ID":"2021-018W","EPOCH":"2026-03-09T16:57:08.803296","MEAN_MOTION":15.30196777,"ECCENTRICITY":0.0001071,"INCLINATION":53.1597,"RA_OF_ASC_NODE":216.6328,"ARG_OF_PERICENTER":96.2177,"MEAN_ANOMALY":263.8945,"EPHEMERIS_TYPE":0,"CLASSIFICATION_TYPE":"U","NORAD_CAT_ID":47807,"ELEMENT_SET_NO":999,"REV_AT_EPOCH":27708,"BSTAR":3.8947405e-5,"MEAN_MOTION_DOT":7.94e-6,"MEAN_MOTION_DDOT":0},{"OBJECT_NAME":"DMSP 5D-2 F13 DEB","OBJECT_ID":"1995-015HL","EPOCH":"2026-02-09T02:06:19.247328","MEAN_MOTION":15.12822218,"ECCENTRICITY":0.00117732,"INCLINATION":98.8603,"RA_OF_ASC_NODE":96.8879,"ARG_OF_PERICENTER":223.037,"MEAN_ANOMALY":136.9936,"EPHEMERIS_TYPE":0,"CLASSIFICATION_TYPE":"U","NORAD_CAT_ID":42294,"ELEMENT_SET_NO":999,"REV_AT_EPOCH":55633,"BSTAR":0.010466292,"MEAN_MOTION_DOT":0.00188804,"MEAN_MOTION_DDOT":0}]
